{"type": "FeatureCollection", "features": [ {"type": "Feature", "properties": {"norad_id": 35587, "name": "COSMOS 2251 DEB", "group": "cosmos-2251-debris", "lat": 53.43913604877485, "lon": 93.8472144940456, "alt_km": 717.1653647608337, "timestamp": "2025-12-06T05:40:09.641834+00:00", "meta": {"OBJECT_NAME": "COSMOS 2251 DEB", "OBJECT_ID": "1993-036AME", "EPOCH": "2025-12-04T12:37:02.430048", "MEAN_MOTION": 14.71472261, "ECCENTRICITY": 0.0102734, "INCLINATION": 74.0052, "RA_OF_ASC_NODE": 74.4225, "ARG_OF_PERICENTER": 263.8785, "MEAN_ANOMALY": 95.0674, "EPHEMERIS_TYPE": 0, "CLASSIFICATION_TYPE": "U", "NORAD_CAT_ID": 35587, "ELEMENT_SET_NO": 999, "REV_AT_EPOCH": 66225, "BSTAR": 0.00065131, "MEAN_MOTION_DOT": 4.353e-05, "MEAN_MOTION_DDOT": 0}, "tle": {"line1": "1 35587U 93036AME 25338.52572257  .00004353  00000+0  65131-3 0  9998", "line2": "2 35587  74.0052  74.4225 0102734 263.8785  95.0674 14.71472261662255"}}, "geometry": {"type": "Point", "coordinates": [93.8472144940456, 53.43913604877485]}}, {"type": "Feature", "properties": {"norad_id": 35593, "name": "COSMOS 2251 DEB", "group": "cosmos-2251-debris", "lat": -1.3430693425703615, "lon": 120.54175428303965, "alt_km": 854.1718738071022, "timestamp": "2025-12-06T05:40:09.641844+00:00", "meta": {"OBJECT_NAME": "COSMOS 2251 DEB", "OBJECT_ID": "1993-036AML", "EPOCH": "2025-12-02T08:10:41.646720", "MEAN_MOTION": 14.25498697, "ECCENTRICITY": 0.01053488, "INCLINATION": 74.0851, "RA_OF_ASC_NODE": 307.1662, "ARG_OF_PERICENTER": 315.9582, "MEAN_ANOMALY": 43.3207, "EPHEMERIS_TYPE": 0, "CLASSIFICATION_TYPE": "U", "NORAD_CAT_ID": 35593, "ELEMENT_SET_NO": 999, "REV_AT_EPOCH": 84917, "BSTAR": 0.0018161686, "MEAN_MOTION_DOT": 4.526e-05, "MEAN_MOTION_DDOT": 0}, "tle": {"line1": "1 35593U 93036AML 25336.34075980  .00004526  00000+0  18162-2 0  9997", "line2": "2 35593  74.0851 307.1662 0105348 315.9582  43.3207 14.25498697849174"}}, "geometry": {"type": "Point", "coordinates": [120.54175428303965, -1.3430693425703615]}}, {"type": "Feature", "properties": {"norad_id": 35594, "name": "COSMOS 2251 DEB", "group": "cosmos-2251-debris", "lat": 65.22467107120131, "lon": -99.33175298469769, "alt_km": 610.0880543538442, "timestamp": "2025-12-06T05:40:09.641854+00:00", "meta": {"OBJECT_NAME": "COSMOS 2251 DEB", "OBJECT_ID": "1993-036AMM", "EPOCH": "2025-12-01T02:30:04.449024", "MEAN_MOTION": 14.8736155, "ECCENTRICITY": 0.00313469, "INCLINATION": 73.8065, "RA_OF_ASC_NODE": 130.0573, "ARG_OF_PERICENTER": 241.1394, "MEAN_ANOMALY": 118.6638, "EPHEMERIS_TYPE": 0, "CLASSIFICATION_TYPE": "U", "NORAD_CAT_ID": 35594, "ELEMENT_SET_NO": 999, "REV_AT_EPOCH": 88012, "BSTAR": 0.00176297, "MEAN_MOTION_DOT": 0.00016075, "MEAN_MOTION_DDOT": 0}, "tle": {"line1": "1 35594U 93036AMM 25335.10421816  .00016075  00000+0  17630-2 0  9995", "line2": "2 35594  73.8065 130.0573 0031346 241.1394 118.6638 14.87361550880129"}}, "geometry": {"type": "Point", "coordinates": [-99.33175298469769, 65.22467107120131]}}, {"type": "Feature", "properties": {"norad_id": 35602, "name": "COSMOS 2251 DEB", "group": "cosmos-2251-debris", "lat": -16.50269492338389, "lon": 21.07705501834389, "alt_km": 440.8295244984429, "timestamp": "2025-12-06T05:40:09.641865+00:00", "meta": {"OBJECT_NAME": "COSMOS 2251 DEB", "OBJECT_ID": "1993-036AMV", "EPOCH": "2025-12-03T02:23:02.143104", "MEAN_MOTION": 15.34579598, "ECCENTRICITY": 0.0090916, "INCLINATION": 73.9948, "RA_OF_ASC_NODE": 202.9376, "ARG_OF_PERICENTER": 270.9308, "MEAN_ANOMALY": 244.0221, "EPHEMERIS_TYPE": 0, "CLASSIFICATION_TYPE": "U", "NORAD_CAT_ID": 35602, "ELEMENT_SET_NO": 999, "REV_AT_EPOCH": 89943, "BSTAR": 0.00068874058, "MEAN_MOTION_DOT": 0.00026466, "MEAN_MOTION_DDOT": 0}, "tle": {"line1": "1 35602U 93036AMV 25337.09933036  .00026466  00000+0  68874-3 0  9999", "line2": "2 35602  73.9948 202.9376 0090916 270.9308 244.0221 15.34579598899435"}}, "geometry": {"type": "Point", "coordinates": [21.07705501834389, -16.50269492338389]}}, {"type": "Feature", "properties": {"norad_id": 35605, "name": "COSMOS 2251 DEB", "group": "cosmos-2251-debris", "lat": -50.26077739858154, "lon": -29.717658506313565, "alt_km": 460.89372781541806, "timestamp": "2025-12-06T05:40:09.641875+00:00", "meta": {"OBJECT_NAME": "COSMOS 2251 DEB", "OBJECT_ID": "1993-036AMY", "EPOCH": "2025-12-05T07:56:09.088800", "MEAN_MOTION": 15.30160549, "ECCENTRICITY": 0.00303227, "INCLINATION": 73.8708, "RA_OF_ASC_NODE": 352.5999, "ARG_OF_PERICENTER": 290.0227, "MEAN_ANOMALY": 69.7711, "EPHEMERIS_TYPE": 0, "CLASSIFICATION_TYPE": "U", "NORAD_CAT_ID": 35605, "ELEMENT_SET_NO": 999, "REV_AT_EPOCH": 65858, "BSTAR": 0.0089867735, "MEAN_MOTION_DOT": 0.00275641, "MEAN_MOTION_DDOT": 0}, "tle": {"line1": "1 35605U 93036AMY 25339.33066075  .00275641  00000+0  89868-2 0  9997", "line2": "2 35605  73.8708 352.5999 0030322 290.0227  69.7711 15.30160549658585"}}, "geometry": {"type": "Point", "coordinates": [-29.717658506313565, -50.26077739858154]}}, {"type": "Feature", "properties": {"norad_id": 35606, "name": "COSMOS 2251 DEB", "group": "cosmos-2251-debris", "lat": 49.22857396297859, "lon": -178.52126104380736, "alt_km": 1143.644572602324, "timestamp": "2025-12-06T05:40:09.641886+00:00", "meta": {"OBJECT_NAME": "COSMOS 2251 DEB", "OBJECT_ID": "1993-036AMZ", "EPOCH": "2025-12-03T08:57:47.035584", "MEAN_MOTION": 13.41186059, "ECCENTRICITY": 0.04578387, "INCLINATION": 73.8109, "RA_OF_ASC_NODE": 25.726, "ARG_OF_PERICENTER": 232.8079, "MEAN_ANOMALY": 123.0404, "EPHEMERIS_TYPE": 0, "CLASSIFICATION_TYPE": "U", "NORAD_CAT_ID": 35606, "ELEMENT_SET_NO": 999, "REV_AT_EPOCH": 60914, "BSTAR": 0.0017547479, "MEAN_MOTION_DOT": 1.782e-05, "MEAN_MOTION_DDOT": 0}, "tle": {"line1": "1 35606U 93036AMZ 25337.37346106  .00001782  00000+0  17547-2 0  9994", "line2": "2 35606  73.8109  25.7260 0457838 232.8079 123.0404 13.41186059609140"}}, "geometry": {"type": "Point", "coordinates": [-178.52126104380736, 49.22857396297859]}}, {"type": "Feature", "properties": {"norad_id": 35611, "name": "COSMOS 2251 DEB", "group": "cosmos-2251-debris", "lat": 57.079528068650255, "lon": -141.75100336891327, "alt_km": 661.6763751511044, "timestamp": "2025-12-06T05:40:09.641896+00:00", "meta": {"OBJECT_NAME": "COSMOS 2251 DEB", "OBJECT_ID": "1993-036ANE", "EPOCH": "2025-12-01T14:30:37.941120", "MEAN_MOTION": 14.72378528, "ECCENTRICITY": 0.00224128, "INCLINATION": 74.0218, "RA_OF_ASC_NODE": 201.0005, "ARG_OF_PERICENTER": 275.1179, "MEAN_ANOMALY": 84.7435, "EPHEMERIS_TYPE": 0, "CLASSIFICATION_TYPE": "U", "NORAD_CAT_ID": 35611, "ELEMENT_SET_NO": 999, "REV_AT_EPOCH": 87126, "BSTAR": 0.0019124254, "MEAN_MOTION_DOT": 0.00012147, "MEAN_MOTION_DDOT": 0}, "tle": {"line1": "1 35611U 93036ANE 25335.60460580  .00012147  00000+0  19124-2 0  9997", "line2": "2 35611  74.0218 201.0005 0022412 275.1179  84.7435 14.72378528871263"}}, "geometry": {"type": "Point", "coordinates": [-141.75100336891327, 57.079528068650255]}}, {"type": "Feature", "properties": {"norad_id": 35614, "name": "COSMOS 2251 DEB", "group": "cosmos-2251-debris", "lat": -41.67423538374427, "lon": -34.76656793517727, "alt_km": 703.8738329037669, "timestamp": "2025-12-06T05:40:09.641906+00:00", "meta": {"OBJECT_NAME": "COSMOS 2251 DEB", "OBJECT_ID": "1993-036ANH", "EPOCH": "2025-12-05T06:57:21.763008", "MEAN_MOTION": 14.66904104, "ECCENTRICITY": 0.0076254, "INCLINATION": 73.9584, "RA_OF_ASC_NODE": 341.9073, "ARG_OF_PERICENTER": 198.1734, "MEAN_ANOMALY": 161.6708, "EPHEMERIS_TYPE": 0, "CLASSIFICATION_TYPE": "U", "NORAD_CAT_ID": 35614, "ELEMENT_SET_NO": 999, "REV_AT_EPOCH": 87620, "BSTAR": 0.0016855394, "MEAN_MOTION_DOT": 9.826e-05, "MEAN_MOTION_DDOT": 0}, "tle": {"line1": "1 35614U 93036ANH 25339.28983522  .00009826  00000+0  16855-2 0  9992", "line2": "2 35614  73.9584 341.9073 0076254 198.1734 161.6708 14.66904104876208"}}, "geometry": {"type": "Point", "coordinates": [-34.76656793517727, -41.67423538374427]}}, {"type": "Feature", "properties": {"norad_id": 35645, "name": "COSMOS 2251 DEB", "group": "cosmos-2251-debris", "lat": 3.2921232123822857, "lon": -81.03560939996122, "alt_km": 735.4527796819557, "timestamp": "2025-12-06T05:40:09.641917+00:00", "meta": {"OBJECT_NAME": "COSMOS 2251 DEB", "OBJECT_ID": "1993-036ANL", "EPOCH": "2025-12-05T00:36:34.377696", "MEAN_MOTION": 14.45381959, "ECCENTRICITY": 0.00692531, "INCLINATION": 73.9647, "RA_OF_ASC_NODE": 102.1783, "ARG_OF_PERICENTER": 260.7833, "MEAN_ANOMALY": 98.5487, "EPHEMERIS_TYPE": 0, "CLASSIFICATION_TYPE": "U", "NORAD_CAT_ID": 35645, "ELEMENT_SET_NO": 999, "REV_AT_EPOCH": 86660, "BSTAR": 0.0041242719, "MEAN_MOTION_DOT": 0.00014944, "MEAN_MOTION_DDOT": 0}, "tle": {"line1": "1 35645U 93036ANL 25339.02539789  .00014944  00000+0  41243-2 0  9996", "line2": "2 35645  73.9647 102.1783 0069253 260.7833  98.5487 14.45381959866603"}}, "geometry": {"type": "Point", "coordinates": [-81.03560939996122, 3.2921232123822857]}}, {"type": "Feature", "properties": {"norad_id": 35646, "name": "COSMOS 2251 DEB", "group": "cosmos-2251-debris", "lat": 25.474739311452314, "lon": 74.27227508947699, "alt_km": 1400.4336430013045, "timestamp": "2025-12-06T05:40:09.641928+00:00", "meta": {"OBJECT_NAME": "COSMOS 2251 DEB", "OBJECT_ID": "1993-036ANM", "EPOCH": "2025-12-04T12:27:05.030208", "MEAN_MOTION": 13.40795719, "ECCENTRICITY": 0.0457655, "INCLINATION": 73.8717, "RA_OF_ASC_NODE": 69.0727, "ARG_OF_PERICENTER": 180.5936, "MEAN_ANOMALY": 201.9959, "EPHEMERIS_TYPE": 0, "CLASSIFICATION_TYPE": "U", "NORAD_CAT_ID": 35646, "ELEMENT_SET_NO": 999, "REV_AT_EPOCH": 81748, "BSTAR": 0.0021754, "MEAN_MOTION_DOT": 2.2e-05, "MEAN_MOTION_DDOT": 0}, "tle": {"line1": "1 35646U 93036ANM 25338.51880822  .00002200  00000+0  21754-2 0  9994", "line2": "2 35646  73.8717  69.0727 0457655 180.5936 201.9959 13.40795719817483"}}, "geometry": {"type": "Point", "coordinates": [74.27227508947699, 25.474739311452314]}}]}